NORAD_CAT_ID,OBJECT_NAME,OBJECT_TYPE,EPOCH,MEAN_MOTION,ECCENTRICITY,INCLINATION,RA_OF_ASC_NODE,ARG_OF_PERICENTER,MEAN_ANOMALY,BSTAR,MEAN_MOTION_DOT,MEAN_MOTION_DDOT,TLE_LINE0,TLE_LINE1,TLE_LINE2,SEMIMAJOR_AXIS,PERIOD,APOGEE,PERIGEE,DECAYED
55287.0,STARLINK-5341,PAYLOAD,2023-06-18 06:24:30,15.69923698,0.0003858,69.9982,6.0364,269.7026,90.3727,1.1638e-05,1.187e-05,0.0,0 STARLINK-5341,1 55287U 23010U   23169.26702407  .00001187  00000-0  11638-4 0  9992,2 55287  69.9982   6.0364 0003858 269.7026  90.3727 15.69923698 24054,6737.252,91.724,361.717,356.518,0.0
55287.0,STARLINK-5341,PAYLOAD,2023-06-18 12:31:31,15.69925299,0.0003972,69.9989,5.3199,269.515,90.5591,2.2843e-05,2.535e-05,0.0,0 STARLINK-5341,1 55287U 23010U   23169.52189085  .00002535  00000-0  22843-4 0  9990,2 55287  69.9989   5.3199 0003972 269.5150  90.5591 15.69925299 24401,6737.248,91.724,361.789,356.437,0.0
55287.0,STARLINK-5341,PAYLOAD,2023-06-18 17:06:46,15.69927676,0.000384,69.9991,4.7822,270.5502,89.5254,2.794e-05,3.149e-05,0.0,0 STARLINK-5341,1 55287U 23010U   23169.71304043  .00003149  00000-0  27940-4 0  9999,2 55287  69.9991   4.7822 0003840 270.5502  89.5254 15.69927676 24435,6737.241,91.724,361.693,356.519,0.0
55287.0,STARLINK-5341,PAYLOAD,2023-06-19 00:45:32,15.69928155,0.0003913,69.9986,3.887,271.138,88.9367,2.7761e-05,3.127e-05,0.0,0 STARLINK-5341,1 55287U 23010U   23170.03162372  .00003127  00000-0  27761-4 0  9990,2 55287  69.9986   3.8870 0003913 271.1380  88.9367 15.69928155 24480,6737.24,91.724,361.741,356.468,0.0
55287.0,STARLINK-5341,PAYLOAD,2023-06-19 14:31:18,15.69927814,0.0004,69.9987,2.2749,270.213,89.8608,3.9757e-06,2.65e-06,0.0,0 STARLINK-5341,1 55287U 23010U   23170.60507335  .00000265  00000-0  39757-5 0  9994,2 55287  69.9987   2.2749 0004000 270.2130  89.8608 15.69927814 24265,6737.241,91.724,361.8,356.411,0.0
55287.0,STARLINK-5341,PAYLOAD,2023-06-19 19:06:33,15.69929732,0.0004003,69.9988,1.7375,270.2634,89.8102,1.1097e-05,1.122e-05,0.0,0 STARLINK-5341,1 55287U 23010U   23170.79622248  .00001122  00000-0  11097-4 0  9994,2 55287  69.9988   1.7375 0004003 270.2634  89.8102 15.69929732 24605,6737.235,91.724,361.797,356.403,0.0
55287.0,STARLINK-5341,PAYLOAD,2023-06-20 11:55:50,15.69919887,0.0003857,69.9983,359.7667,270.2791,89.7963,-4.5243e-06,-7.57e-06,0.0,0 STARLINK-5341,1 55287U 23010U   23171.49711135 -.00000757  00000-0 -45243-5 0  9992,2 55287  69.9983 359.7667 0003857 270.2791  89.7963 15.69919887 24716,6737.263,91.724,361.727,356.53,0.0
55287.0,STARLINK-5341,PAYLOAD,2023-06-20 14:59:20,15.69924534,0.0003744,69.9985,359.4079,270.1507,89.9259,1.3709e-06,-4.8e-07,0.0,0 STARLINK-5341,1 55287U 23010U   23171.62454232 -.00000048  00000-0  13709-5 0  9993,2 55287  69.9985 359.4079 0003744 270.1507  89.9259 15.69924534 24424,6737.25,91.724,361.637,356.592,0.0
55287.0,STARLINK-5341,PAYLOAD,2023-06-20 21:06:20,15.6993014,0.0003627,69.9985,358.692,268.2975,91.7806,1.7776e-05,1.926e-05,0.0,0 STARLINK-5341,1 55287U 23010U   23171.87940627  .00001926  00000-0  17776-4 0  9990,2 55287  69.9985 358.6920 0003627 268.2975  91.7806 15.69930140 24774,6737.234,91.724,361.542,356.655,0.0
55287.0,STARLINK-5341,PAYLOAD,2023-06-20 22:38:06,15.69915578,0.0003735,69.9984,358.5125,286.4466,73.6319,-8.4095e-06,-1.224e-05,0.0,0 STARLINK-5341,1 55287U 23010U   23171.94313159 -.00001224  00000-0 -84095-5 0  9994,2 55287  69.9984 358.5125 0003735 286.4466  73.6319 15.69915578 24479,6737.276,91.725,361.657,356.624,0.0
55287.0,STARLINK-5341,PAYLOAD,2023-06-21 13:55:37,15.69920974,0.0003898,69.997,356.7208,271.6207,88.4542,4.5653e-06,3.36e-06,0.0,0 STARLINK-5341,1 55287U 23010U   23172.58029737  .00000336  00000-0  45653-5 0  9999,2 55287  69.9970 356.7208 0003898 271.6207  88.4542 15.69920974 24888,6737.26,91.724,361.751,356.499,0.0
55287.0,STARLINK-5341,PAYLOAD,2023-06-21 18:30:52,15.69931425,0.0003649,69.9973,356.1834,268.9118,91.166,1.5991e-05,1.711e-05,0.0,0 STARLINK-5341,1 55287U 23010U   23172.77143990  .00001711  00000-0  15991-4 0  9997,2 55287  69.9973 356.1834 0003649 268.9118  91.1660 15.69931425 24609,6737.23,91.724,361.554,356.637,0.0
55287.0,STARLINK-5341,PAYLOAD,2023-06-21 20:02:37,15.69933835,0.0003641,69.9974,356.0044,270.0853,89.9925,1.7772e-05,1.925e-05,0.0,0 STARLINK-5341,1 55287U 23010U   23172.83515355  .00001925  00000-0  17772-4 0  9998,2 55287  69.9974 356.0044 0003641 270.0853  89.9925 15.69933835 24925,6737.223,91.724,361.541,356.635,0.0
55287.0,STARLINK-5341,PAYLOAD,2023-06-22 00:37:54,15.69910712,0.0003293,69.9973,355.4668,275.1243,84.9576,-8.1096e-06,-1.187e-05,0.0,0 STARLINK-5341,1 55287U 23010U   23173.02632441 -.00001187  00000-0 -81096-5 0  9999,2 55287  69.9973 355.4668 0003293 275.1243  84.9576 15.69910712 24646,6737.289,91.725,361.373,356.936,0.0
55287.0,STARLINK-5341,PAYLOAD,2023-06-22 05:13:08,15.69920395,0.0003783,69.9971,354.9298,269.9864,90.0898,7.5395e-06,6.94e-06,0.0,0 STARLINK-5341,1 55287U 23010U   23173.21746480  .00000694  00000-0  75395-5 0  9994,2 55287  69.9971 354.9298 0003783 269.9864  90.0898 15.69920395 24677,6737.262,91.724,361.675,356.578,0.0
55287.0,STARLINK-5341,PAYLOAD,2023-06-22 15:55:23,15.69936722,0.000351,69.9977,353.6773,260.7766,99.3033,2.0804e-05,2.291e-05,0.0,0 STARLINK-5341,1 55287U 23010U   23173.66346969  .00002291  00000-0  20804-4 0  9990,2 55287  69.9977 353.6773 0003510 260.7766  99.3033 15.69936722 24747,6737.215,91.723,361.445,356.715,0.0
55287.0,STARLINK-5341,PAYLOAD,2023-06-22 23:34:10,15.69926694,0.0004034,69.9969,352.7795,272.1117,87.9617,5.6433e-07,-1.45e-06,0.0,0 STARLINK-5341,1 55287U 23010U   23173.98206087 -.00000145  00000-0  56433-6 0  9997,2 55287  69.9969 352.7795 0004034 272.1117  87.9617 15.69926694 24794,6737.244,91.724,361.827,356.391,0.0
55287.0,STARLINK-5341,PAYLOAD,2023-06-24 04:37:27,15.69925441,0.0003788,69.9971,349.3756,275.1313,84.945,1.4442e-06,-3.9e-07,0.0,0 STARLINK-5341,1 55287U 23010U   23175.19268130 -.00000039  00000-0  14442-5 0  9994,2 55287  69.9971 349.3756 0003788 275.1313  84.9450 15.69925441 24984,6737.247,91.724,361.664,356.56,0.0
55287.0,STARLINK-5341,PAYLOAD,2023-06-24 21:26:43,15.69935069,0.0003678,69.9972,347.4049,273.202,86.8754,1.9614e-06,2.3e-07,0.0,0 STARLINK-5341,1 55287U 23010U   23175.89355951  .00000023  00000-0  19614-5 0  9997,2 55287  69.9972 347.4049 0003678 273.2020  86.8754 15.69935069 25099,6737.22,91.724,361.563,356.607,0.0
55287.0,STARLINK-5341,PAYLOAD,2023-06-25 05:05:30,15.69918545,0.0003377,69.9983,346.5112,282.2622,77.8196,1.7479e-05,1.889e-05,0.0,0 STARLINK-5341,1 55287U 23010U   23176.21215335  .00001889  00000-0  17479-4 0  9992,2 55287  69.9983 346.5112 0003377 282.2622  77.8196 15.69918545 25142,6737.267,91.725,361.407,356.857,0.0
55287.0,STARLINK-5341,PAYLOAD,2023-06-25 17:19:29,15.69939704,0.0003771,69.9971,345.076,272.7927,87.2837,1.1728e-05,1.198e-05,0.0,0 STARLINK-5341,1 55287U 23010U   23176.72187230  .00001198  00000-0  11728-4 0  9994,2 55287  69.9971 345.0760 0003771 272.7927  87.2837 15.69939704 25228,6737.207,91.723,361.612,356.531,0.0
55287.0,STARLINK-5341,PAYLOAD,2023-06-26 10:08:47,15.69917954,0.0003615,69.9997,343.1062,279.8318,80.247,2.9671e-06,1.44e-06,0.0,0 STARLINK-5341,1 55287U 23010U   23177.42277062  .00000144  00000-0  29671-5 0  9992,2 55287  69.9997 343.1062 0003615 279.8318  80.2470 15.69917954 25330,6737.269,91.725,361.569,356.698,0.0
55287.0,STARLINK-5341,PAYLOAD,2023-06-27 19:47:19,15.69936719,0.0003336,69.9996,339.1642,274.2219,85.8596,2.1729e-05,2.402e-05,0.0,0 STARLINK-5341,1 55287U 23010U   23178.82452893  .00002402  00000-0  21729-4 0  9998,2 55287  69.9996 339.1642 0003336 274.2219  85.8596 15.69936719 25551,6737.215,91.723,361.328,356.833,0.0
55287.0,STARLINK-5341,PAYLOAD,2023-06-28 11:04:51,15.69913477,0.0003857,69.9984,337.3734,272.9274,87.1481,-4.2327e-06,-7.22e-06,0.0,0 STARLINK-5341,1 55287U 23010U   23179.46170809 -.00000722  00000-0 -42327-5 0  9996,2 55287  69.9984 337.3734 0003857 272.9274  87.1481 15.69913477 25659,6737.282,91.725,361.745,356.548,0.0
55287.0,STARLINK-5341,PAYLOAD,2023-06-28 17:11:51,15.69921634,0.000334,69.9994,336.6551,271.5693,88.512,1.4777e-05,1.564e-05,0.0,0 STARLINK-5341,1 55287U 23010U   23179.71657234  .00001564  00000-0  14777-4 0  9996,2 55287  69.9994 336.6551 0003340 271.5693  88.5120 15.69921634 25699,6737.258,91.724,361.373,356.873,0.0
55287.0,STARLINK-5341,PAYLOAD,2023-06-28 18:43:36,15.6992986,0.0003495,69.9991,336.4768,271.5903,88.4892,3.0455e-05,3.452e-05,0.0,0 STARLINK-5341,1 55287U 23010U   23179.78028508  .00003452  00000-0  30455-4 0  9998,2 55287  69.9991 336.4768 0003495 271.5903  88.4892 15.69929860 25705,6737.235,91.724,361.454,356.745,0.0
55287.0,STARLINK-5341,PAYLOAD,2023-06-29 11:32:53,15.69924855,0.0003403,69.9991,334.5074,271.8757,88.2048,1.0912e-05,1.1e-05,0.0,0 STARLINK-5341,1 55287U 23010U   23180.48117064  .00001100  00000-0  10912-4 0  9997,2 55287  69.9991 334.5074 0003403 271.8757  88.2048 15.69924855 25815,6737.249,91.724,361.407,356.821,0.0
55287.0,STARLINK-5341,PAYLOAD,2023-06-29 19:11:38,15.69939611,0.0003192,70.0012,333.6131,269.5638,90.5192,4.6889e-05,5.432e-05,0.0,0 STARLINK-5341,1 55287U 23010U   23180.79974911  .00005432  00000-0  46889-4 0  9997,2 55287  70.0012 333.6131 0003192 269.5638  90.5192 15.69939611 25860,6737.207,91.723,361.222,356.921,0.0
55287.0,STARLINK-5341,PAYLOAD,2023-06-30 16:36:10,15.69914504,0.000423,70.0001,331.1014,272.3139,87.7573,-1.8825e-05,-2.476e-05,0.0,0 STARLINK-5341,1 55287U 23010U   23181.69178785 -.00002476  00000-0 -18825-4 0  9998,2 55287  70.0001 331.1014 0004230 272.3139  87.7573 15.69914504 26005,6737.279,91.725,361.993,356.294,0.0
55287.0,STARLINK-5341,PAYLOAD,2023-07-01 09:25:26,15.69933228,0.0003881,70.0001,329.131,271.8433,88.2318,4.2883e-05,4.949e-05,0.0,0 STARLINK-5341,1 55287U 23010U   23182.39266997  .00004949  00000-0  42883-4 0  9995,2 55287  70.0001 329.1310 0003881 271.8433  88.2318 15.69933228 26112,6737.225,91.724,361.705,356.475,0.0
